{"fetched_at":"2026-07-21T17:54:00.966Z","source":"https://celestrak.org/NORAD/elements/gp.php?NAME=WORLDVIEW&FORMAT=JSON","constellation":"worldview","records":[{"OBJECT_NAME":"WORLDVIEW-1 (WV-1)","OBJECT_ID":"2007-041A","EPOCH":"2026-07-21T05:27:58.993632","CLASSIFICATION_TYPE":"U","MEAN_MOTION":15.24600209,"ECCENTRICITY":0.00021261,"INCLINATION":97.3903,"RA_OF_ASC_NODE":321.4966,"ARG_OF_PERICENTER":182.121,"MEAN_ANOMALY":178.0019,"EPHEMERIS_TYPE":0,"NORAD_CAT_ID":32060,"ELEMENT_SET_NO":999,"REV_AT_EPOCH":4806,"BSTAR":0.00018346933,"MEAN_MOTION_DOT":0.00004452,"MEAN_MOTION_DDOT":0},{"OBJECT_NAME":"WORLDVIEW-2 (WV-2)","OBJECT_ID":"2009-055A","EPOCH":"2026-07-21T06:15:38.171808","CLASSIFICATION_TYPE":"U","MEAN_MOTION":14.37908103,"ECCENTRICITY":0.00054959,"INCLINATION":98.4751,"RA_OF_ASC_NODE":275.2465,"ARG_OF_PERICENTER":115.4654,"MEAN_ANOMALY":244.7103,"EPHEMERIS_TYPE":0,"NORAD_CAT_ID":35946,"ELEMENT_SET_NO":999,"REV_AT_EPOCH":88054,"BSTAR":0.000033653161,"MEAN_MOTION_DOT":5.8e-7,"MEAN_MOTION_DDOT":0},{"OBJECT_NAME":"WORLDVIEW-3 (WV-3)","OBJECT_ID":"2014-048A","EPOCH":"2026-07-21T06:16:08.589792","CLASSIFICATION_TYPE":"U","MEAN_MOTION":14.85070297,"ECCENTRICITY":0.00017367,"INCLINATION":97.8551,"RA_OF_ASC_NODE":276.6219,"ARG_OF_PERICENTER":146.8236,"MEAN_ANOMALY":213.3088,"EPHEMERIS_TYPE":0,"NORAD_CAT_ID":40115,"ELEMENT_SET_NO":999,"REV_AT_EPOCH":64696,"BSTAR":0.000069197682,"MEAN_MOTION_DOT":0.00000538,"MEAN_MOTION_DDOT":0}]}
